{"type": "FeatureCollection", "features": [ {"type": "Feature", "properties": {"norad_id": 57401, "name": "TIANMU-1 09", "group": "weather", "lat": -72.92428929019039, "lon": 57.806502113289525, "alt_km": 493.5893826599913, "timestamp": "2025-12-09T23:33:23.490410+00:00", "meta": {"OBJECT_NAME": "TIANMU-1 09", "OBJECT_ID": "2023-101C", "EPOCH": "2025-12-09T14:27:08.639712", "MEAN_MOTION": 15.28010658, "ECCENTRICITY": 0.00068122, "INCLINATION": 97.2822, "RA_OF_ASC_NODE": 32.8347, "ARG_OF_PERICENTER": 92.2411, "MEAN_ANOMALY": 267.9609, "EPHEMERIS_TYPE": 0, "CLASSIFICATION_TYPE": "U", "NORAD_CAT_ID": 57401, "ELEMENT_SET_NO": 999, "REV_AT_EPOCH": 13267, "BSTAR": 0.00038711515, "MEAN_MOTION_DOT": 0.00010516, "MEAN_MOTION_DDOT": 0}, "tle": {"line1": "1 57401U 23101C   25343.60218333  .00010516  00000+0  38712-3 0  9993", "line2": "2 57401  97.2822  32.8347 0006812  92.2411 267.9609 15.28010658132676"}}, "geometry": {"type": "Point", "coordinates": [57.806502113289525, -72.92428929019039]}}, {"type": "Feature", "properties": {"norad_id": 57402, "name": "TIANMU-1 10", "group": "weather", "lat": 79.49368928895078, "lon": -102.29273745259331, "alt_km": 468.57291746353803, "timestamp": "2025-12-09T23:33:23.490430+00:00", "meta": {"OBJECT_NAME": "TIANMU-1 10", "OBJECT_ID": "2023-101D", "EPOCH": "2025-12-09T13:42:05.240736", "MEAN_MOTION": 15.28001286, "ECCENTRICITY": 0.00085628, "INCLINATION": 97.2903, "RA_OF_ASC_NODE": 33.6506, "ARG_OF_PERICENTER": 92.5267, "MEAN_ANOMALY": 267.6953, "EPHEMERIS_TYPE": 0, "CLASSIFICATION_TYPE": "U", "NORAD_CAT_ID": 57402, "ELEMENT_SET_NO": 999, "REV_AT_EPOCH": 13266, "BSTAR": 0.00041158101, "MEAN_MOTION_DOT": 0.00011187, "MEAN_MOTION_DDOT": 0}, "tle": {"line1": "1 57402U 23101D   25343.57089399  .00011187  00000+0  41158-3 0  9991", "line2": "2 57402  97.2903  33.6506 0008562  92.5267 267.6953 15.28001286132664"}}, "geometry": {"type": "Point", "coordinates": [-102.29273745259331, 79.49368928895078]}}, {"type": "Feature", "properties": {"norad_id": 57490, "name": "FENGYUN 3F", "group": "weather", "lat": -10.735100267792077, "lon": 53.984498944645395, "alt_km": 830.0468726030986, "timestamp": "2025-12-09T23:33:23.490447+00:00", "meta": {"OBJECT_NAME": "FENGYUN 3F", "OBJECT_ID": "2023-111A", "EPOCH": "2025-12-09T15:09:05.201280", "MEAN_MOTION": 14.19892435, "ECCENTRICITY": 6.543e-05, "INCLINATION": 98.7087, "RA_OF_ASC_NODE": 51.9748, "ARG_OF_PERICENTER": 96.11, "MEAN_ANOMALY": 264.015, "EPHEMERIS_TYPE": 0, "CLASSIFICATION_TYPE": "U", "NORAD_CAT_ID": 57490, "ELEMENT_SET_NO": 999, "REV_AT_EPOCH": 12196, "BSTAR": 9.9601123e-05, "MEAN_MOTION_DOT": 1.68e-06, "MEAN_MOTION_DDOT": 0}, "tle": {"line1": "1 57490U 23111A   25343.63131020  .00000168  00000+0  99601-4 0  9999", "line2": "2 57490  98.7087  51.9748 0000654  96.1100 264.0150 14.19892435121965"}}, "geometry": {"type": "Point", "coordinates": [53.984498944645395, -10.735100267792077]}}, {"type": "Feature", "properties": {"norad_id": 58584, "name": "ARKTIKA-M 2", "group": "weather", "lat": 58.47986621093738, "lon": -129.3681930713288, "alt_km": 35156.727760164686, "timestamp": "2025-12-09T23:33:23.490469+00:00", "meta": {"OBJECT_NAME": "ARKTIKA-M 2", "OBJECT_ID": "2023-198A", "EPOCH": "2025-12-08T20:10:13.977120", "MEAN_MOTION": 2.0060476, "ECCENTRICITY": 0.68646991, "INCLINATION": 63.2247, "RA_OF_ASC_NODE": 175.3152, "ARG_OF_PERICENTER": 268.1185, "MEAN_ANOMALY": 18.8267, "EPHEMERIS_TYPE": 0, "CLASSIFICATION_TYPE": "U", "NORAD_CAT_ID": 58584, "ELEMENT_SET_NO": 999, "REV_AT_EPOCH": 1450, "BSTAR": 0, "MEAN_MOTION_DOT": 1.66e-06, "MEAN_MOTION_DDOT": 0}, "tle": {"line1": "1 58584U 23198A   25342.84043955  .00000166  00000+0  00000+0 0  9998", "line2": "2 58584  63.2247 175.3152 6864699 268.1185  18.8267  2.00604760 14506"}}, "geometry": {"type": "Point", "coordinates": [-129.3681930713288, 58.47986621093738]}}, {"type": "Feature", "properties": {"norad_id": 58645, "name": "TIANMU-1 11", "group": "weather", "lat": -48.49860176116453, "lon": 12.054498879593385, "alt_km": 493.541885145135, "timestamp": "2025-12-09T23:33:23.490488+00:00", "meta": {"OBJECT_NAME": "TIANMU-1 11", "OBJECT_ID": "2023-205A", "EPOCH": "2025-12-09T14:19:09.933600", "MEAN_MOTION": 15.24539701, "ECCENTRICITY": 0.00081661, "INCLINATION": 97.3608, "RA_OF_ASC_NODE": 3.2749, "ARG_OF_PERICENTER": 323.2504, "MEAN_ANOMALY": 36.8173, "EPHEMERIS_TYPE": 0, "CLASSIFICATION_TYPE": "U", "NORAD_CAT_ID": 58645, "ELEMENT_SET_NO": 999, "REV_AT_EPOCH": 10861, "BSTAR": 0.00038691723, "MEAN_MOTION_DOT": 9.464e-05, "MEAN_MOTION_DDOT": 0}, "tle": {"line1": "1 58645U 23205A   25343.59664275  .00009464  00000+0  38692-3 0  9994", "line2": "2 58645  97.3608   3.2749 0008166 323.2504  36.8173 15.24539701108619"}}, "geometry": {"type": "Point", "coordinates": [12.054498879593385, -48.49860176116453]}}, {"type": "Feature", "properties": {"norad_id": 58646, "name": "TIANMU-1 12", "group": "weather", "lat": 15.351459870208185, "lon": -174.50702686041578, "alt_km": 496.57524412275325, "timestamp": "2025-12-09T23:33:23.491118+00:00", "meta": {"OBJECT_NAME": "TIANMU-1 12", "OBJECT_ID": "2023-205B", "EPOCH": "2025-12-09T14:57:37.091808", "MEAN_MOTION": 15.24419608, "ECCENTRICITY": 0.00060519, "INCLINATION": 97.3596, "RA_OF_ASC_NODE": 3.1077, "ARG_OF_PERICENTER": 305.4165, "MEAN_ANOMALY": 54.6507, "EPHEMERIS_TYPE": 0, "CLASSIFICATION_TYPE": "U", "NORAD_CAT_ID": 58646, "ELEMENT_SET_NO": 999, "REV_AT_EPOCH": 10860, "BSTAR": 0.00037087642, "MEAN_MOTION_DOT": 9.032e-05, "MEAN_MOTION_DDOT": 0}, "tle": {"line1": "1 58646U 23205B   25343.62334597  .00009032  00000+0  37088-3 0  9999", "line2": "2 58646  97.3596   3.1077 0006051 305.4165  54.6507 15.24419608108606"}}, "geometry": {"type": "Point", "coordinates": [-174.50702686041578, 15.351459870208185]}}, {"type": "Feature", "properties": {"norad_id": 58647, "name": "TIANMU-1 13", "group": "weather", "lat": -19.870931707709136, "lon": 6.337794472486599, "alt_km": 495.54972775647457, "timestamp": "2025-12-09T23:33:23.491136+00:00", "meta": {"OBJECT_NAME": "TIANMU-1 13", "OBJECT_ID": "2023-205C", "EPOCH": "2025-12-09T14:11:31.979040", "MEAN_MOTION": 15.24462904, "ECCENTRICITY": 0.00060544, "INCLINATION": 97.3624, "RA_OF_ASC_NODE": 3.2759, "ARG_OF_PERICENTER": 281.7098, "MEAN_ANOMALY": 78.346, "EPHEMERIS_TYPE": 0, "CLASSIFICATION_TYPE": "U", "NORAD_CAT_ID": 58647, "ELEMENT_SET_NO": 999, "REV_AT_EPOCH": 10859, "BSTAR": 0.00037949965, "MEAN_MOTION_DOT": 9.256e-05, "MEAN_MOTION_DDOT": 0}, "tle": {"line1": "1 58647U 23205C   25343.59134235  .00009256  00000+0  37950-3 0  9999", "line2": "2 58647  97.3624   3.2759 0006054 281.7098  78.3460 15.24462904108597"}}, "geometry": {"type": "Point", "coordinates": [6.337794472486599, -19.870931707709136]}}, {"type": "Feature", "properties": {"norad_id": 58648, "name": "TIANMU-1 14", "group": "weather", "lat": 69.89146681797392, "lon": -17.650429366895906, "alt_km": 489.6032449687791, "timestamp": "2025-12-09T23:33:23.491154+00:00", "meta": {"OBJECT_NAME": "TIANMU-1 14", "OBJECT_ID": "2023-205D", "EPOCH": "2025-12-09T13:47:34.641600", "MEAN_MOTION": 15.24446873, "ECCENTRICITY": 0.0006912, "INCLINATION": 97.3556, "RA_OF_ASC_NODE": 2.6112, "ARG_OF_PERICENTER": 286.901, "MEAN_ANOMALY": 73.147, "EPHEMERIS_TYPE": 0, "CLASSIFICATION_TYPE": "U", "NORAD_CAT_ID": 58648, "ELEMENT_SET_NO": 999, "REV_AT_EPOCH": 10859, "BSTAR": 0.00037855925, "MEAN_MOTION_DOT": 9.23e-05, "MEAN_MOTION_DDOT": 0}, "tle": {"line1": "1 58648U 23205D   25343.57470650  .00009230  00000+0  37856-3 0  9999", "line2": "2 58648  97.3556   2.6112 0006912 286.9010  73.1470 15.24446873108593"}}, "geometry": {"type": "Point", "coordinates": [-17.650429366895906, 69.89146681797392]}}, {"type": "Feature", "properties": {"norad_id": 58660, "name": "TIANMU-1 19", "group": "weather", "lat": -65.81558948346886, "lon": 111.93860684304556, "alt_km": 487.2684891789604, "timestamp": "2025-12-09T23:33:23.491177+00:00", "meta": {"OBJECT_NAME": "TIANMU-1 19", "OBJECT_ID": "2023-208A", "EPOCH": "2025-12-09T14:25:02.436960", "MEAN_MOTION": 15.27758449, "ECCENTRICITY": 0.00040581, "INCLINATION": 97.4389, "RA_OF_ASC_NODE": 94.6443, "ARG_OF_PERICENTER": 267.1189, "MEAN_ANOMALY": 92.9586, "EPHEMERIS_TYPE": 0, "CLASSIFICATION_TYPE": "U", "NORAD_CAT_ID": 58660, "ELEMENT_SET_NO": 999, "REV_AT_EPOCH": 10834, "BSTAR": 0.00052278564, "MEAN_MOTION_DOT": 0.00014117, "MEAN_MOTION_DDOT": 0}, "tle": {"line1": "1 58660U 23208A   25343.60072265  .00014117  00000+0  52279-3 0  9996", "line2": "2 58660  97.4389  94.6443 0004058 267.1189  92.9586 15.27758449108345"}}, "geometry": {"type": "Point", "coordinates": [111.93860684304556, -65.81558948346886]}}, {"type": "Feature", "properties": {"norad_id": 58661, "name": "TIANMU-1 20", "group": "weather", "lat": -4.4761010665884875, "lon": 96.05470705127237, "alt_km": 481.66778901785074, "timestamp": "2025-12-09T23:33:23.491195+00:00", "meta": {"OBJECT_NAME": "TIANMU-1 20", "OBJECT_ID": "2023-208B", "EPOCH": "2025-12-09T14:09:07.028352", "MEAN_MOTION": 15.28949446, "ECCENTRICITY": 0.00063185, "INCLINATION": 97.4327, "RA_OF_ASC_NODE": 95.0778, "ARG_OF_PERICENTER": 279.1842, "MEAN_ANOMALY": 80.8683, "EPHEMERIS_TYPE": 0, "CLASSIFICATION_TYPE": "U", "NORAD_CAT_ID": 58661, "ELEMENT_SET_NO": 999, "REV_AT_EPOCH": 10841, "BSTAR": 0.00049390712, "MEAN_MOTION_DOT": 0.00013831, "MEAN_MOTION_DDOT": 0}, "tle": {"line1": "1 58661U 23208B   25343.58966468  .00013831  00000+0  49391-3 0  9994", "line2": "2 58661  97.4327  95.0778 0006318 279.1842  80.8683 15.28949446108416"}}, "geometry": {"type": "Point", "coordinates": [96.05470705127237, -4.4761010665884875]}}]}